OBJECT_NAME,OBJECT_ID,EPOCH,MEAN_MOTION,ECCENTRICITY,INCLINATION,RA_OF_ASC_NODE,ARG_OF_PERICENTER,MEAN_ANOMALY,EPHEMERIS_TYPE,CLASSIFICATION_TYPE,NORAD_CAT_ID,ELEMENT_SET_NO,REV_AT_EPOCH,BSTAR,MEAN_MOTION_DOT,MEAN_MOTION_DDOT
STARLINK-1068,2019-074BM,2026-06-08T05:29:58.892640,15.75382828,.00021748,53.0415,92.4538,127.8422,232.2794,0,U,44772,999,36306,.44864141E-3,.69143E-3,0
JILIN-1 GAOFEN 2A,2019-075A,2026-06-08T07:02:46.872384,15.39076148,.00076203,97.4960,242.8775,113.0936,247.1113,0,U,44777,999,36351,.32619869E-3,.12559E-3,0
NINGXIA-1 1,2019-076A,2026-06-08T06:35:03.905664,14.02037463,.00101942,45.0053,219.6828,119.1996,240.9859,0,U,44779,999,33660,.7276045E-5,-.119E-5,0
NINGXIA-1 2,2019-076B,2026-06-08T06:11:45.425760,14.02055351,.00058738,45.0071,220.0886,111.3006,248.8456,0,U,44780,999,33660,.83161257E-4,-.2E-7,0
NINGXIA-1 3,2019-076C,2026-06-08T05:49:20.877600,14.02050480,.00089982,44.9992,218.3637,107.6571,252.5246,0,U,44781,999,33660,.27996202E-4,-.87E-6,0
NINGXIA-1 4,2019-076D,2026-06-08T07:13:05.085984,14.02068295,.00116613,45.0070,219.5390,82.3855,277.8303,0,U,44782,999,33657,.10770634E-4,-.113E-5,0
NINGXIA-1 5,2019-076E,2026-06-08T06:54:38.671776,14.02084854,.00098237,45.0042,218.9662,107.6558,252.5349,0,U,44783,999,33652,-.37035643E-4,-.187E-5,0
KL-ALPHA A,2019-077A,2026-06-08T06:22:32.388096,13.56042458,.00127946,88.9252,223.5399,128.1194,232.1116,0,U,44785,999,32452,.32410262E-4,.35E-6,0
KL-ALPHA B,2019-077B,2026-06-08T06:33:32.832288,13.56001873,.00266325,88.9115,221.1411,171.3582,188.8036,0,U,44786,999,32397,.78457606E-4,.67E-6,0
BEIDOU-3 M22,2019-078A,2026-06-06T21:07:11.351136,1.86227675,.00065987,53.9461,300.1905,49.5245,310.5255,0,U,44793,999,4445,0,-.55E-6,0
BEIDOU-3 M21,2019-078B,2026-06-07T13:21:56.204928,1.86228087,.00044631,53.9185,300.1281,47.5961,312.4345,0,U,44794,999,4447,0,-.56E-6,0
TIBA-1,2019-080A,2026-06-08T06:42:23.616000,1.00274328,.00021797,0.0515,346.1762,114.0629,292.5485,0,U,44800,999,2396,0,.171E-5,0
INMARSAT GX5,2019-080B,2026-06-08T06:35:24.285696,1.00270443,.00024636,0.0377,8.7919,66.8794,290.8881,0,U,44801,999,669,0,.9E-6,0
CARTOSAT-3,2019-081A,2026-06-08T06:22:35.488128,15.19219188,.00122709,97.4302,221.2760,178.1583,181.9699,0,U,44804,999,36211,.1886014E-3,.391E-4,0
GAOFEN-12 01,2019-082A,2026-06-08T07:02:18.420864,14.80451362,.00024781,97.8101,165.9075,80.9171,279.2322,0,U,44819,999,35277,.61126446E-4,.417E-5,0
JILIN-1 GAOFEN 2B,2019-086A,2026-06-08T06:19:56.576064,15.20613538,.00136504,97.4880,231.3113,357.4306,2.6856,0,U,44836,999,35913,.25483827E-3,.5531E-4,0
COSMOS 2544 [GLONASS-M],2019-088A,2026-06-07T15:27:34.197984,2.13102192,.00136537,65.5607,74.0490,259.6167,100.2516,0,U,44850,999,5051,0,-.1E-6,0
RISAT-2BR1,2019-089F,2026-06-08T05:50:50.462304,15.01613887,.0010734,36.9585,164.6875,99.7150,260.4805,0,U,44857,999,35585,.17612468E-3,.2251E-4,0
IHOPSAT-TD,2019-089H,2026-06-08T05:35:45.973536,15.11769791,.00048015,36.9666,92.3883,183.5317,176.5396,0,U,44859,999,35663,.17407592E-3,.2945E-4,0
BEIDOU-3 M19,2019-090A,2026-06-06T10:56:36.782592,1.86231867,.00181153,56.5493,63.1460,297.5322,241.6390,0,U,44864,999,4403,0,-.38E-6,0
BEIDOU-3 M20,2019-090B,2026-06-06T07:44:50.540352,1.86231730,.00161406,56.5509,63.1852,310.9731,228.5055,0,U,44865,999,4401,0,-.38E-6,0
JCSAT-18 (KACIFIC 1),2019-091A,2026-06-08T05:32:21.422400,1.00270939,.00002709,0.0227,230.8659,340.2653,278.6035,0,U,44868,999,2392,0,-.185E-5,0
CSG-1,2019-092A,2026-06-08T06:35:57.541056,14.82157580,.00014518,97.8888,343.0067,90.6089,269.5291,0,U,44873,999,35015,.65405883E-4,.469E-5,0
CHEOPS,2019-092B,2026-06-08T02:51:04.376160,14.61959174,.00116336,98.1507,347.5140,124.2236,236.0069,0,U,44874,999,34457,.86250789E-4,.385E-5,0
TIANQIN 1 (CAS-6),2019-093A,2026-06-08T06:09:48.138624,14.95398979,.00129485,97.7805,243.1619,84.4300,275.8397,0,U,44879,999,35071,.35186319E-3,.3835E-4,0
ETRSS-1,2019-093B,2026-06-08T06:23:17.685888,14.95824927,.00130562,97.7825,243.6227,84.5053,275.7657,0,U,44880,999,35072,.30767495E-3,.3383E-4,0
TIANYAN 01,2019-093C,2026-06-08T07:03:27.516672,14.86506865,.00149142,97.7526,231.7429,113.3523,246.9264,0,U,44881,999,35009,.16614328E-3,.1419E-4,0
TIANYAN 02,2019-093D,2026-06-08T06:40:03.648864,15.05117030,.00144577,97.7924,253.9830,57.1944,303.0672,0,U,44882,999,35127,.47670936E-3,.6739E-4,0
CBERS 4A,2019-093E,2026-06-08T05:49:07.741344,14.81624511,.00013425,97.7494,226.7643,152.1870,207.9416,0,U,44883,999,34975,.13804065E-3,.1035E-4,0
WEILAI 1R,2019-093F,2026-06-08T06:03:52.200864,15.00569699,.001786,97.7841,249.1265,63.1730,297.1317,0,U,44884,999,35108,.40968372E-3,.5128E-4,0
FLORIPASAT-1,2019-093G,2026-06-08T05:49:36.571296,15.03787594,.00136445,97.7918,253.4094,98.9757,261.3014,0,U,44885,999,35130,.39978164E-3,.5441E-4,0
SHUNTIAN,2019-093H,2026-06-08T05:45:48.049344,14.95112732,.00129385,97.7996,247.4468,94.9319,265.3379,0,U,44886,999,35084,.27444185E-3,.2956E-4,0
ELEKTRO-L 3,2019-095A,2026-06-08T03:28:39.307296,1.00272636,.00014674,0.2329,81.1938,351.2141,312.2467,0,U,44903,999,2361,0,-.81E-6,0
GONETS-M 14,2019-096A,2026-06-08T06:34:22.646208,12.42869691,.00131089,82.5232,90.1662,167.2748,192.8665,0,U,44905,999,29257,.35563546E-3,.59E-6,0
GONETS-M 15,2019-096B,2026-06-08T07:16:43.583808,12.42871279,.00145193,82.5251,90.6080,191.3500,168.7254,0,U,44906,999,29254,.40119082E-3,.65E-6,0
GONETS-M 16,2019-096C,2026-06-08T05:58:46.802784,12.42891800,.00096327,82.5197,89.5981,236.2421,123.7741,0,U,44907,999,29252,.80408953E-3,.121E-5,0
RS-44 & BREEZE-KM R/B,2019-096E,2026-06-08T00:20:36.443616,12.79748641,.02177556,82.5217,345.8017,165.5613,195.1847,0,U,44909,999,30117,.26983768E-4,.19E-6,0
SHIJIAN-20 (SJ-20),2019-097A,2026-06-08T00:16:30.741024,1.00274774,.0013806,4.8946,75.1748,52.9393,177.1972,0,U,44910,999,2360,0,.151E-5,0
STARLINK-1114,2020-001P,2026-06-08T05:56:13.513632,15.65284705,.0004144,53.0401,249.4307,0.4236,359.6781,0,U,44927,999,35421,.3820338E-3,.38297E-3,0
STARLINK-1123,2020-001S,2026-06-08T05:22:55.890336,15.58152281,.00058234,53.1434,276.5608,311.8564,48.1952,0,U,44930,999,35384,.92402673E-3,.71081E-3,0
STARLINK-1094,2020-001AD,2026-06-08T05:57:04.533696,15.54484123,.0006474,53.1523,251.4715,337.8205,22.2525,0,U,44941,999,35420,.59304561E-3,.39463E-3,0
STARLINK-1122,2020-001AM,2026-06-07T13:14:57.112224,15.54219874,.00060465,53.1524,255.4351,330.0859,29.9806,0,U,44949,999,35408,.95681737E-3,.63533E-3,0
STARLINK-1080,2020-001AZ,2026-06-07T20:56:20.461920,15.67674104,.00027562,53.0441,211.6507,31.9744,328.1439,0,U,44961,999,35471,.45585888E-3,.50542E-3,0
STARLINK-1090,2020-001BG,2026-06-08T05:55:35.445792,15.50581310,.00048145,53.1480,239.8226,344.9700,15.1165,0,U,44968,999,35436,.9283725E-3,.53945E-3,0
TJS-5,2020-002A,2026-06-08T00:12:18.692352,1.00270307,.0007577,0.0347,284.3079,122.7607,319.9111,0,U,44978,999,2361,0,-.327E-5,0
JILIN-1 KUANFU 01,2020-003A,2026-06-08T05:04:05.409408,15.10676371,.00090093,97.5028,233.3420,342.4016,17.6901,0,U,45016,999,35397,.2096754E-3,.341E-4,0
YINHE-1,2020-004A,2026-06-08T06:34:15.126816,14.79126811,.00153132,86.3935,119.5412,39.3755,320.8575,0,U,45024,999,34460,.13489802E-3,.1027E-4,0
GSAT-30,2020-005A,2026-06-08T03:30:39.114720,1.00269701,.00034639,0.0511,106.9047,337.4024,307.8873,0,U,45026,999,2341,0,-.149E-5,0
EUTELSAT KONNECT,2020-005B,2026-06-08T06:34:24.381984,1.00269655,.00010977,0.0705,98.1276,136.9119,127.4734,0,U,45027,999,2424,0,.65E-6,0
STARLINK-1132,2020-006A,2026-06-08T08:00:04.000032,15.55700775,.00042023,53.1499,180.4295,23.5717,246.2109,0,U,45044,999,589,.9066493E-3,.63534E-3,0
STARLINK-1131,2020-006D,2026-06-07T11:07:28.193664,15.52278264,.00055214,53.1553,217.4568,359.1774,0.9226,0,U,45047,999,35038,.82842361E-3,.51102E-3,0
STARLINK-1134,2020-006E,2026-06-08T05:11:06.512640,15.58368804,.00080768,53.0252,163.6731,60.9897,299.1922,0,U,45048,999,35118,.13752885E-2,.10748E-2,0
STARLINK-1156,2020-006L,2026-06-07T20:46:04.635552,15.35038123,.00039614,53.1572,221.1399,353.4211,6.6739,0,U,45054,999,35036,.94016594E-3,.32182E-3,0
STARLINK-1166,2020-006S,2026-06-08T06:50:19.541760,15.59616086,.00060473,53.0449,196.3495,9.7916,350.3213,0,U,45060,999,35073,.75346703E-3,.61117E-3,0
STARLINK-1169,2020-006T,2026-06-07T21:35:25.149696,15.38432902,.00057128,53.1550,219.5601,329.9748,30.0928,0,U,45061,999,35039,.15214806E-2,.5862E-3,0
STARLINK-1171,2020-006U,2026-06-08T05:32:00.377952,15.74407405,.00035301,53.0389,162.4685,6.8029,353.3037,0,U,45062,999,35120,.40083849E-3,.59067E-3,0
STARLINK-1133,2020-006W,2026-06-07T20:04:31.566144,15.34993714,.00054121,53.1561,198.0513,6.1275,353.9794,0,U,45064,999,35069,.74276315E-3,.2529E-3,0
STARLINK-1167,2020-006AD,2026-06-07T20:08:13.506144,15.37444728,.0003935,53.1569,197.1051,337.7869,22.2964,0,U,45071,999,35070,.98205433E-3,.3638E-3,0
STARLINK-1168,2020-006AE,2026-06-07T19:35:18.585312,15.35149352,.00048494,53.1565,198.3414,8.4689,351.6395,0,U,45072,999,35068,.90168641E-3,.30958E-3,0
STARLINK-1172,2020-006AG,2026-06-08T07:35:31.105536,15.38493669,.00042796,53.1538,194.1956,345.4466,14.6414,0,U,45074,999,35078,.10887207E-2,.41815E-3,0
STARLINK-1153,2020-006AN,2026-06-07T19:44:21.493536,15.37416138,.00052936,53.1578,197.0995,341.5329,18.5482,0,U,45080,999,35070,.1076201E-2,.39893E-3,0
STARLINK-1151,2020-006AP,2026-06-08T08:00:04.000032,15.86283130,.00020536,53.0477,150.5040,104.8987,13.5592,0,U,45081,999,600,.25440132E-2,.702649E-2,0
STARLINK-1185,2020-006AV,2026-06-08T05:19:18.555456,15.46003025,.00060004,53.1591,175.3172,18.0663,342.0557,0,U,45087,999,35104,.1080124E-2,.53514E-3,0
STARLINK-1183,2020-006AW,2026-06-08T06:02:25.705824,15.35086897,.00043595,53.1574,180.9245,16.8784,343.2363,0,U,45088,999,35096,.1068674E-2,.36714E-3,0
STARLINK-1152,2020-006BE,2026-06-08T05:33:52.000704,15.48907520,.00043265,53.0323,135.9285,70.4218,289.7256,0,U,45096,999,35157,.1016213E-2,.55698E-3,0
